NORAD_CAT_ID,OBJECT_NAME,OBJECT_TYPE,EPOCH,MEAN_MOTION,ECCENTRICITY,INCLINATION,RA_OF_ASC_NODE,ARG_OF_PERICENTER,MEAN_ANOMALY,BSTAR,MEAN_MOTION_DOT,MEAN_MOTION_DDOT,TLE_LINE0,TLE_LINE1,TLE_LINE2,SEMIMAJOR_AXIS,PERIOD,APOGEE,PERIGEE,DECAYED
53776.0,STARLINK-4708,PAYLOAD,2023-02-05 03:41:55,15.08859445,0.0001393,53.2174,305.4419,79.7555,280.3594,0.00071005,0.00011036,0.0,0 STARLINK-4708,1 53776U 22111D   23036.15411194  .00011036  00000-0  71005-3 0  9992,2 53776  53.2174 305.4419 0001393  79.7555 280.3594 15.08859445 23535,6917.821,95.436,540.65,538.722,0.0
53776.0,STARLINK-4708,PAYLOAD,2023-02-05 18:00:24,15.08835301,0.000123,53.2172,302.7666,84.6604,275.4528,-7.0026e-05,-1.402e-05,0.0,0 STARLINK-4708,1 53776U 22111D   23036.75027909 -.00001402  00000-0 -70026-4 0  9996,2 53776  53.2172 302.7666 0001230  84.6604 275.4528 15.08835301 22533,6917.895,95.438,540.611,538.909,0.0
53776.0,STARLINK-4708,PAYLOAD,2023-02-05 21:11:10,15.08838158,0.0001136,53.2175,302.1721,80.266,279.8461,6.6259e-05,7.67e-06,0.0,0 STARLINK-4708,1 53776U 22111D   23036.88275915  .00000767  00000-0  66259-4 0  9996,2 53776  53.2175 302.1721 0001136  80.2660 279.8461 15.08838158 23641,6917.886,95.438,540.537,538.965,0.0
53776.0,STARLINK-4708,PAYLOAD,2023-02-06 03:32:42,15.08842329,0.0001128,53.2175,300.9822,85.81,274.3021,0.00056194,8.667e-05,0.0,0 STARLINK-4708,1 53776U 22111D   23037.14771954  .00008667  00000-0  56194-3 0  9993,2 53776  53.2175 300.9822 0001128  85.8100 274.3021 15.08842329 22590,6917.873,95.437,540.519,538.958,0.0
53776.0,STARLINK-4708,PAYLOAD,2023-02-06 21:01:57,15.08851268,0.0001069,53.2173,297.7116,87.9736,272.1379,0.00075849,0.00011808,0.0,0 STARLINK-4708,1 53776U 22111D   23037.87635938  .00011808  00000-0  75849-3 0  9993,2 53776  53.2173 297.7116 0001069  87.9736 272.1379 15.08851268 23796,6917.846,95.437,540.45,538.971,0.0
53776.0,STARLINK-4708,PAYLOAD,2023-02-07 01:48:06,15.08865376,0.0001052,53.2174,296.8197,89.7248,270.3865,0.0011285,0.0001773,0.0,0 STARLINK-4708,1 53776U 22111D   23038.07507554  .00017730  00000-0  11285-2 0  9991,2 53776  53.2174 296.8197 0001052  89.7248 270.3865 15.08865376 23825,6917.803,95.436,540.396,538.94,0.0
53776.0,STARLINK-4708,PAYLOAD,2023-02-07 20:52:44,15.08850442,0.0001233,53.2171,293.2513,92.7928,267.3205,0.00039649,6.03e-05,0.0,0 STARLINK-4708,1 53776U 22111D   23038.86995611  .00006030  00000-0  39649-3 0  9999,2 53776  53.2171 293.2513 0001233  92.7928 267.3205 15.08850442 23940,6917.848,95.437,540.566,538.861,0.0
53776.0,STARLINK-4708,PAYLOAD,2023-02-07 22:28:07,15.0884872,0.0001165,53.2172,292.9541,95.0251,265.0875,0.00033208,5.002e-05,0.0,0 STARLINK-4708,1 53776U 22111D   23038.93619587  .00005002  00000-0  33208-3 0  9995,2 53776  53.2172 292.9541 0001165  95.0251 265.0875 15.08848720 22861,6917.854,95.437,540.525,538.913,0.0
53776.0,STARLINK-4708,PAYLOAD,2023-02-08 22:18:55,15.08828096,0.0001502,53.2171,288.494,73.0131,287.1026,0.00018228,2.613e-05,0.0,0 STARLINK-4708,1 53776U 22111D   23039.92980517  .00002613  00000-0  18228-3 0  9999,2 53776  53.2171 288.4940 0001502  73.0131 287.1026 15.08828096 24107,6917.917,95.438,540.821,538.743,0.0
53776.0,STARLINK-4708,PAYLOAD,2023-02-08 23:54:18,15.08832738,0.0001336,53.2166,288.201,84.2146,275.8998,0.00022619,3.313e-05,0.0,0 STARLINK-4708,1 53776U 22111D   23039.99604541  .00003313  00000-0  22619-3 0  9993,2 53776  53.2166 288.2010 0001336  84.2146 275.8998 15.08832738 23022,6917.903,95.438,540.692,538.843,0.0
53776.0,STARLINK-4708,PAYLOAD,2023-02-09 20:34:19,15.08837802,0.0001377,53.2166,284.3332,78.8884,281.2263,0.00025907,3.837e-05,0.0,0 STARLINK-4708,1 53776U 22111D   23040.85717022  .00003837  00000-0  25907-3 0  9993,2 53776  53.2166 284.3332 0001377  78.8884 281.2263 15.08837802 24247,6917.887,95.438,540.705,538.8,0.0
53776.0,STARLINK-4708,PAYLOAD,2023-02-10 01:20:28,15.08845107,0.0001338,53.2162,283.4389,86.1923,273.9222,0.00038683,5.875e-05,0.0,0 STARLINK-4708,1 53776U 22111D   23041.05588943  .00005875  00000-0  38683-3 0  9993,2 53776  53.2162 283.4389 0001338  86.1923 273.9222 15.08845107 24271,6917.865,95.437,540.655,538.804,0.0
53776.0,STARLINK-4708,PAYLOAD,2023-02-10 22:00:29,15.08849191,0.0001209,53.2161,279.5713,95.9274,264.1856,0.00035842,5.422e-05,0.0,0 STARLINK-4708,1 53776U 22111D   23041.91700499  .00005422  00000-0  35842-3 0  9992,2 53776  53.2161 279.5713 0001209  95.9274 264.1856 15.08849191 24408,6917.852,95.437,540.554,538.881,0.0
53776.0,STARLINK-4708,PAYLOAD,2023-02-11 10:43:34,15.08847706,0.0001244,53.2173,277.192,119.2901,240.8215,0.00024888,3.676e-05,0.0,0 STARLINK-4708,1 53776U 22111D   23042.44692522  .00003676  00000-0  24888-3 0  9995,2 53776  53.2173 277.1920 0001244 119.2901 240.8215 15.08847706 23398,6917.857,95.437,540.582,538.861,0.0
53776.0,STARLINK-4708,PAYLOAD,2023-02-11 21:51:16,15.0883769,0.0001006,53.217,275.1132,81.1594,278.9512,0.00010376,1.364e-05,0.0,0 STARLINK-4708,1 53776U 22111D   23042.91060990  .00001364  00000-0  10376-3 0  9994,2 53776  53.2170 275.1132 0001006  81.1594 278.9512 15.08837690 23460,6917.887,95.438,540.448,539.057,0.0
53776.0,STARLINK-4708,PAYLOAD,2023-02-12 10:34:22,15.08833552,0.0001318,53.2153,272.7319,92.1445,267.9698,0.00024328,3.585e-05,0.0,0 STARLINK-4708,1 53776U 22111D   23043.44053351  .00003585  00000-0  24328-3 0  9995,2 53776  53.2153 272.7319 0001318  92.1445 267.9698 15.08833552 24630,6917.9,95.438,540.677,538.853,0.0
53776.0,STARLINK-4708,PAYLOAD,2023-02-13 00:52:50,15.08842538,0.000126,53.2145,270.0558,89.856,270.2577,8.415e-05,1.052e-05,0.0,0 STARLINK-4708,1 53776U 22111D   23044.03669229  .00001052  00000-0  84150-4 0  9995,2 53776  53.2145 270.0558 0001260  89.8560 270.2577 15.08842538 23630,6917.873,95.437,540.609,538.866,0.0
53776.0,STARLINK-4708,PAYLOAD,2023-02-14 10:15:56,15.08832761,0.0001289,53.2157,263.8119,81.099,279.0148,5.7441e-05,6.26e-06,0.0,0 STARLINK-4708,1 53776U 22111D   23045.42773859  .00000626  00000-0  57441-4 0  9993,2 53776  53.2157 263.8119 0001289  81.0990 279.0148 15.08832761 23849,6917.903,95.438,540.659,538.876,0.0
53776.0,STARLINK-4708,PAYLOAD,2023-02-14 16:37:29,15.08833121,0.0001297,53.2164,262.6222,82.7218,277.3922,0.00011839,1.596e-05,0.0,0 STARLINK-4708,1 53776U 22111D   23045.69270005  .00001596  00000-0  11839-3 0  9994,2 53776  53.2164 262.6222 0001297  82.7218 277.3922 15.08833121 24976,6917.901,95.438,540.664,538.869,0.0
53776.0,STARLINK-4708,PAYLOAD,2023-02-15 13:17:29,15.0883465,0.000126,53.2161,258.7573,97.1764,262.9372,0.00014705,2.053e-05,0.0,0 STARLINK-4708,1 53776U 22111D   23046.55381469  .00002053  00000-0  14705-3 0  9991,2 53776  53.2161 258.7573 0001260  97.1764 262.9372 15.08834650 24016,6917.897,95.438,540.633,538.89,0.0
53776.0,STARLINK-4708,PAYLOAD,2023-02-15 16:28:15,15.08839097,0.0001445,53.2154,258.1621,93.7046,266.4112,0.00017243,2.457e-05,0.0,0 STARLINK-4708,1 53776U 22111D   23046.68629310  .00002457  00000-0  17243-3 0  9993,2 53776  53.2154 258.1621 0001445  93.7046 266.4112 15.08839097 25120,6917.883,95.438,540.748,538.749,0.0
53776.0,STARLINK-4708,PAYLOAD,2023-02-16 06:46:38,15.08892016,8.69e-05,53.2157,255.4855,158.6158,201.4871,0.00055845,8.624e-05,0.0,0 STARLINK-4708,1 53776U 22111D   23047.28239511  .00008624  00000-0  55845-3 0  9992,2 53776  53.2157 255.4855 0000869 158.6158 201.4871 15.08892016 24126,6917.721,95.434,540.188,538.985,0.0
53776.0,STARLINK-4708,PAYLOAD,2023-02-16 13:07:58,15.09062446,5.67e-05,53.2158,254.2948,92.0379,268.0678,0.0019518,0.00031102,0.0,0 STARLINK-4708,1 53776U 22111D   23047.54720113  .00031102  00000-0  19518-2 0  9997,2 53776  53.2158 254.2948 0000567  92.0379 268.0678 15.09062446 25254,6917.201,95.423,539.458,538.673,0.0
53776.0,STARLINK-4708,PAYLOAD,2023-02-16 16:18:42,15.09192028,0.0001668,53.215,253.7007,104.4748,255.6429,0.0045643,0.00073824,0.0,0 STARLINK-4708,1 53776U 22111D   23047.67965801  .00073824  00000-0  45643-2 0  9991,2 53776  53.2150 253.7007 0001668 104.4748 255.6429 15.09192028 24184,6916.805,95.415,539.823,537.516,0.0
53776.0,STARLINK-4708,PAYLOAD,2023-02-17 06:36:48,15.09367042,0.0001366,53.214,251.0217,81.0187,279.096,0.0053408,0.00087011,0.0,0 STARLINK-4708,1 53776U 22111D   23048.27556612  .00087011  00000-0  53408-2 0  9995,2 53776  53.2140 251.0217 0001366  81.0187 279.0960 15.09367042 24279,6916.27,95.404,539.08,537.19,0.0
53776.0,STARLINK-4708,PAYLOAD,2023-02-17 14:33:32,15.09424987,0.0001017,53.2151,249.5349,87.973,272.1379,0.0050473,0.00082289,0.0,0 STARLINK-4708,1 53776U 22111D   23048.60662372  .00082289  00000-0  50473-2 0  9994,2 53776  53.2151 249.5349 0001017  87.9730 272.1379 15.09424987 24327,6916.093,95.401,538.661,537.255,0.0
53776.0,STARLINK-4708,PAYLOAD,2023-02-17 20:54:54,15.09457473,7.19e-05,53.2154,248.3443,98.0445,262.0629,0.0045169,0.00073587,0.0,0 STARLINK-4708,1 53776U 22111D   23048.87146203  .00073587  00000-0  45169-2 0  9990,2 53776  53.2154 248.3443 0000719  98.0445 262.0629 15.09457473 25453,6915.994,95.399,538.356,537.361,0.0
53776.0,STARLINK-4708,PAYLOAD,2023-02-18 22:20:59,15.09163874,0.0001202,53.2162,243.5867,78.6304,281.4823,-0.0033661,-0.00053933,0.0,0 STARLINK-4708,1 53776U 22111D   23049.93124709 -.00053933  00000-0 -33661-2 0  9994,2 53776  53.2162 243.5867 0001202  78.6304 281.4823 15.09163874 24522,6916.891,95.417,539.587,537.924,0.0
53776.0,STARLINK-4708,PAYLOAD,2023-02-19 12:39:18,15.09115877,0.0001204,53.2163,240.9094,79.2134,280.8994,-0.0033366,-0.00053396,0.0,0 STARLINK-4708,1 53776U 22111D   23050.52729708 -.00053396  00000-0 -33366-2 0  9996,2 53776  53.2163 240.9094 0001204  79.2134 280.8994 15.09115877 25709,6917.037,95.42,539.735,538.069,0.0
53776.0,STARLINK-4708,PAYLOAD,2023-02-20 04:33:03,15.09038519,0.0001616,53.216,237.9348,69.0894,291.0271,-0.0027862,-0.00044597,0.0,0 STARLINK-4708,1 53776U 22111D   23051.18962661 -.00044597  00000-0 -27862-2 0  9993,2 53776  53.2160 237.9348 0001616  69.0894 291.0271 15.09038519 24710,6917.274,95.425,540.256,538.021,0.0
